KUIPER-00095            
1 65134U 25171C   25280.85137250  .00023256  00000+0  64534-3 0  9995
2 65134  51.8728 128.1732 0004028 357.5219   2.5747 15.36798780 10068
KUIPER-00096            
1 65135U 25171D   25280.83959902  .00070129  00000+0  18765-2 0  9995
2 65135  51.8774 128.0954 0004534 324.1246  35.9436 15.37389600 10060
KUIPER-00097            
1 65136U 25171E   25280.85170806  .00080605  00000+0  22079-2 0  9999
2 65136  51.8723 128.1734 0003521  10.5459 349.5600 15.36602403 10053
KUIPER-00098            
1 65137U 25171F   25280.83667108 -.00039917  00000+0 -12405-2 0  9998
2 65137  51.8762 128.0872 0007432 332.9701  27.0896 15.32668092  9409
KUIPER-00099            
1 65138U 25171G   25280.57154793  .00039898  00000+0  10725-2 0  9990
2 65138  51.8745 129.3122 0005125 328.0761  31.9914 15.37497340 10017
KUIPER-00100            
1 65139U 25171H   25280.57949532  .00044220  00000+0  11960-2 0  9991
2 65139  51.8731 129.3518 0004169 341.4034  18.6800 15.37264180 10011
KUIPER-00102            
1 65140U 25171J   25280.85205094  .00072202  00000+0  19625-2 0  9999
2 65140  51.8750 128.1745 0003992 350.8966   9.1947 15.36892033 10058
KUIPER-00103            
1 65141U 25171K   25280.86085411  .00004482  00000+0  24955-3 0  9998
2 65141  51.8856 129.7201 0003383 337.2897  22.7930 15.15523234 10038
