<?xml version="1.0" encoding="UTF-8"?>
<ndm xmlns:xsi="http://www.w3.org/2001/XMLSchema-instance" xsi:noNamespaceSchemaLocation="https://sanaregistry.org/r/ndmxml_unqualified/ndmxml-2.0.0-master-2.0.xsd">
<omm id="CCSDS_OMM_VERS" version="2.0">
<header><CREATION_DATE/><ORIGINATOR/></header><body><segment><metadata><OBJECT_NAME>KUIPER-00095</OBJECT_NAME><OBJECT_ID>2025-171C</OBJECT_ID><CENTER_NAME>EARTH</CENTER_NAME><REF_FRAME>TEME</REF_FRAME><TIME_SYSTEM>UTC</TIME_SYSTEM><MEAN_ELEMENT_THEORY>SGP4</MEAN_ELEMENT_THEORY></metadata><data><meanElements><EPOCH>2025-10-07T20:25:58.584000</EPOCH><MEAN_MOTION>15.36798780</MEAN_MOTION><ECCENTRICITY>.0004028</ECCENTRICITY><INCLINATION>51.8728</INCLINATION><RA_OF_ASC_NODE>128.1732</RA_OF_ASC_NODE><ARG_OF_PERICENTER>357.5219</ARG_OF_PERICENTER><MEAN_ANOMALY>2.5747</MEAN_ANOMALY></meanElements><tleParameters><EPHEMERIS_TYPE>0</EPHEMERIS_TYPE><CLASSIFICATION_TYPE>U</CLASSIFICATION_TYPE><NORAD_CAT_ID>65134</NORAD_CAT_ID><ELEMENT_SET_NO>999</ELEMENT_SET_NO><REV_AT_EPOCH>1006</REV_AT_EPOCH><BSTAR>.64534E-3</BSTAR><MEAN_MOTION_DOT>.23256E-3</MEAN_MOTION_DOT><MEAN_MOTION_DDOT>0</MEAN_MOTION_DDOT></tleParameters></data></segment></body></omm>
<omm id="CCSDS_OMM_VERS" version="2.0">
<header><CREATION_DATE/><ORIGINATOR/></header><body><segment><metadata><OBJECT_NAME>KUIPER-00096</OBJECT_NAME><OBJECT_ID>2025-171D</OBJECT_ID><CENTER_NAME>EARTH</CENTER_NAME><REF_FRAME>TEME</REF_FRAME><TIME_SYSTEM>UTC</TIME_SYSTEM><MEAN_ELEMENT_THEORY>SGP4</MEAN_ELEMENT_THEORY></metadata><data><meanElements><EPOCH>2025-10-07T20:09:01.355328</EPOCH><MEAN_MOTION>15.37389600</MEAN_MOTION><ECCENTRICITY>.0004534</ECCENTRICITY><INCLINATION>51.8774</INCLINATION><RA_OF_ASC_NODE>128.0954</RA_OF_ASC_NODE><ARG_OF_PERICENTER>324.1246</ARG_OF_PERICENTER><MEAN_ANOMALY>35.9436</MEAN_ANOMALY></meanElements><tleParameters><EPHEMERIS_TYPE>0</EPHEMERIS_TYPE><CLASSIFICATION_TYPE>U</CLASSIFICATION_TYPE><NORAD_CAT_ID>65135</NORAD_CAT_ID><ELEMENT_SET_NO>999</ELEMENT_SET_NO><REV_AT_EPOCH>1006</REV_AT_EPOCH><BSTAR>.18765E-2</BSTAR><MEAN_MOTION_DOT>.70129E-3</MEAN_MOTION_DOT><MEAN_MOTION_DDOT>0</MEAN_MOTION_DDOT></tleParameters></data></segment></body></omm>
<omm id="CCSDS_OMM_VERS" version="2.0">
<header><CREATION_DATE/><ORIGINATOR/></header><body><segment><metadata><OBJECT_NAME>KUIPER-00097</OBJECT_NAME><OBJECT_ID>2025-171E</OBJECT_ID><CENTER_NAME>EARTH</CENTER_NAME><REF_FRAME>TEME</REF_FRAME><TIME_SYSTEM>UTC</TIME_SYSTEM><MEAN_ELEMENT_THEORY>SGP4</MEAN_ELEMENT_THEORY></metadata><data><meanElements><EPOCH>2025-10-07T20:26:27.576384</EPOCH><MEAN_MOTION>15.36602403</MEAN_MOTION><ECCENTRICITY>.0003521</ECCENTRICITY><INCLINATION>51.8723</INCLINATION><RA_OF_ASC_NODE>128.1734</RA_OF_ASC_NODE><ARG_OF_PERICENTER>10.5459</ARG_OF_PERICENTER><MEAN_ANOMALY>349.5600</MEAN_ANOMALY></meanElements><tleParameters><EPHEMERIS_TYPE>0</EPHEMERIS_TYPE><CLASSIFICATION_TYPE>U</CLASSIFICATION_TYPE><NORAD_CAT_ID>65136</NORAD_CAT_ID><ELEMENT_SET_NO>999</ELEMENT_SET_NO><REV_AT_EPOCH>1005</REV_AT_EPOCH><BSTAR>.22079E-2</BSTAR><MEAN_MOTION_DOT>.80605E-3</MEAN_MOTION_DOT><MEAN_MOTION_DDOT>0</MEAN_MOTION_DDOT></tleParameters></data></segment></body></omm>
<omm id="CCSDS_OMM_VERS" version="2.0">
<header><CREATION_DATE/><ORIGINATOR/></header><body><segment><metadata><OBJECT_NAME>KUIPER-00098</OBJECT_NAME><OBJECT_ID>2025-171F</OBJECT_ID><CENTER_NAME>EARTH</CENTER_NAME><REF_FRAME>TEME</REF_FRAME><TIME_SYSTEM>UTC</TIME_SYSTEM><MEAN_ELEMENT_THEORY>SGP4</MEAN_ELEMENT_THEORY></metadata><data><meanElements><EPOCH>2025-10-07T20:04:48.381312</EPOCH><MEAN_MOTION>15.32668092</MEAN_MOTION><ECCENTRICITY>.0007432</ECCENTRICITY><INCLINATION>51.8762</INCLINATION><RA_OF_ASC_NODE>128.0872</RA_OF_ASC_NODE><ARG_OF_PERICENTER>332.9701</ARG_OF_PERICENTER><MEAN_ANOMALY>27.0896</MEAN_ANOMALY></meanElements><tleParameters><EPHEMERIS_TYPE>0</EPHEMERIS_TYPE><CLASSIFICATION_TYPE>U</CLASSIFICATION_TYPE><NORAD_CAT_ID>65137</NORAD_CAT_ID><ELEMENT_SET_NO>999</ELEMENT_SET_NO><REV_AT_EPOCH>940</REV_AT_EPOCH><BSTAR>-.12405E-2</BSTAR><MEAN_MOTION_DOT>-.39917E-3</MEAN_MOTION_DOT><MEAN_MOTION_DDOT>0</MEAN_MOTION_DDOT></tleParameters></data></segment></body></omm>
<omm id="CCSDS_OMM_VERS" version="2.0">
<header><CREATION_DATE/><ORIGINATOR/></header><body><segment><metadata><OBJECT_NAME>KUIPER-00099</OBJECT_NAME><OBJECT_ID>2025-171G</OBJECT_ID><CENTER_NAME>EARTH</CENTER_NAME><REF_FRAME>TEME</REF_FRAME><TIME_SYSTEM>UTC</TIME_SYSTEM><MEAN_ELEMENT_THEORY>SGP4</MEAN_ELEMENT_THEORY></metadata><data><meanElements><EPOCH>2025-10-07T13:43:01.741152</EPOCH><MEAN_MOTION>15.37497340</MEAN_MOTION><ECCENTRICITY>.0005125</ECCENTRICITY><INCLINATION>51.8745</INCLINATION><RA_OF_ASC_NODE>129.3122</RA_OF_ASC_NODE><ARG_OF_PERICENTER>328.0761</ARG_OF_PERICENTER><MEAN_ANOMALY>31.9914</MEAN_ANOMALY></meanElements><tleParameters><EPHEMERIS_TYPE>0</EPHEMERIS_TYPE><CLASSIFICATION_TYPE>U</CLASSIFICATION_TYPE><NORAD_CAT_ID>65138</NORAD_CAT_ID><ELEMENT_SET_NO>999</ELEMENT_SET_NO><REV_AT_EPOCH>1001</REV_AT_EPOCH><BSTAR>.10725E-2</BSTAR><MEAN_MOTION_DOT>.39898E-3</MEAN_MOTION_DOT><MEAN_MOTION_DDOT>0</MEAN_MOTION_DDOT></tleParameters></data></segment></body></omm>
<omm id="CCSDS_OMM_VERS" version="2.0">
<header><CREATION_DATE/><ORIGINATOR/></header><body><segment><metadata><OBJECT_NAME>KUIPER-00100</OBJECT_NAME><OBJECT_ID>2025-171H</OBJECT_ID><CENTER_NAME>EARTH</CENTER_NAME><REF_FRAME>TEME</REF_FRAME><TIME_SYSTEM>UTC</TIME_SYSTEM><MEAN_ELEMENT_THEORY>SGP4</MEAN_ELEMENT_THEORY></metadata><data><meanElements><EPOCH>2025-10-07T13:54:28.395648</EPOCH><MEAN_MOTION>15.37264180</MEAN_MOTION><ECCENTRICITY>.0004169</ECCENTRICITY><INCLINATION>51.8731</INCLINATION><RA_OF_ASC_NODE>129.3518</RA_OF_ASC_NODE><ARG_OF_PERICENTER>341.4034</ARG_OF_PERICENTER><MEAN_ANOMALY>18.6800</MEAN_ANOMALY></meanElements><tleParameters><EPHEMERIS_TYPE>0</EPHEMERIS_TYPE><CLASSIFICATION_TYPE>U</CLASSIFICATION_TYPE><NORAD_CAT_ID>65139</NORAD_CAT_ID><ELEMENT_SET_NO>999</ELEMENT_SET_NO><REV_AT_EPOCH>1001</REV_AT_EPOCH><BSTAR>.1196E-2</BSTAR><MEAN_MOTION_DOT>.4422E-3</MEAN_MOTION_DOT><MEAN_MOTION_DDOT>0</MEAN_MOTION_DDOT></tleParameters></data></segment></body></omm>
<omm id="CCSDS_OMM_VERS" version="2.0">
<header><CREATION_DATE/><ORIGINATOR/></header><body><segment><metadata><OBJECT_NAME>KUIPER-00102</OBJECT_NAME><OBJECT_ID>2025-171J</OBJECT_ID><CENTER_NAME>EARTH</CENTER_NAME><REF_FRAME>TEME</REF_FRAME><TIME_SYSTEM>UTC</TIME_SYSTEM><MEAN_ELEMENT_THEORY>SGP4</MEAN_ELEMENT_THEORY></metadata><data><meanElements><EPOCH>2025-10-07T20:26:57.201216</EPOCH><MEAN_MOTION>15.36892033</MEAN_MOTION><ECCENTRICITY>.0003992</ECCENTRICITY><INCLINATION>51.8750</INCLINATION><RA_OF_ASC_NODE>128.1745</RA_OF_ASC_NODE><ARG_OF_PERICENTER>350.8966</ARG_OF_PERICENTER><MEAN_ANOMALY>9.1947</MEAN_ANOMALY></meanElements><tleParameters><EPHEMERIS_TYPE>0</EPHEMERIS_TYPE><CLASSIFICATION_TYPE>U</CLASSIFICATION_TYPE><NORAD_CAT_ID>65140</NORAD_CAT_ID><ELEMENT_SET_NO>999</ELEMENT_SET_NO><REV_AT_EPOCH>1005</REV_AT_EPOCH><BSTAR>.19625E-2</BSTAR><MEAN_MOTION_DOT>.72202E-3</MEAN_MOTION_DOT><MEAN_MOTION_DDOT>0</MEAN_MOTION_DDOT></tleParameters></data></segment></body></omm>
<omm id="CCSDS_OMM_VERS" version="2.0">
<header><CREATION_DATE/><ORIGINATOR/></header><body><segment><metadata><OBJECT_NAME>KUIPER-00103</OBJECT_NAME><OBJECT_ID>2025-171K</OBJECT_ID><CENTER_NAME>EARTH</CENTER_NAME><REF_FRAME>TEME</REF_FRAME><TIME_SYSTEM>UTC</TIME_SYSTEM><MEAN_ELEMENT_THEORY>SGP4</MEAN_ELEMENT_THEORY></metadata><data><meanElements><EPOCH>2025-10-07T20:39:37.795104</EPOCH><MEAN_MOTION>15.15523234</MEAN_MOTION><ECCENTRICITY>.0003383</ECCENTRICITY><INCLINATION>51.8856</INCLINATION><RA_OF_ASC_NODE>129.7201</RA_OF_ASC_NODE><ARG_OF_PERICENTER>337.2897</ARG_OF_PERICENTER><MEAN_ANOMALY>22.7930</MEAN_ANOMALY></meanElements><tleParameters><EPHEMERIS_TYPE>0</EPHEMERIS_TYPE><CLASSIFICATION_TYPE>U</CLASSIFICATION_TYPE><NORAD_CAT_ID>65141</NORAD_CAT_ID><ELEMENT_SET_NO>999</ELEMENT_SET_NO><REV_AT_EPOCH>1003</REV_AT_EPOCH><BSTAR>.24955E-3</BSTAR><MEAN_MOTION_DOT>.4482E-4</MEAN_MOTION_DOT><MEAN_MOTION_DDOT>0</MEAN_MOTION_DDOT></tleParameters></data></segment></body></omm>

</ndm>
